STARLINK-5602           
1 55743U 23028C   25351.69252507  .00005697  00000+0  48477-3 0  9990
2 55743  70.0016  91.3685 0003216 277.2639  82.8154 14.98338732153757
STARLINK-5601           
1 55744U 23028D   25351.68849824 -.00000072  00000+0  17974-5 0  9997
2 55744  69.9998  91.3530 0003217 270.0436  90.0354 14.98332346153758
STARLINK-5579           
1 55746U 23028F   25351.72587714 -.00000009  00000+0  70645-5 0  9995
2 55746  70.0002  91.0821 0003282 273.7600  86.3183 14.98329868153768
STARLINK-5539           
1 55747U 23028G   25351.67581192  .00002179  00000+0  19027-3 0  9998
2 55747  70.0017  91.3093 0003194 273.1609  86.9185 14.98348359153757
STARLINK-5580           
1 55748U 23028H   25351.73839504  .00000317  00000+0  34361-4 0  9990
2 55748  70.0001  91.1255 0003365 267.9150  92.1623 14.98333263153766
STARLINK-5573           
1 55750U 23028K   25351.66746016 -.00002619  00000+0 -21171-3 0  9993
2 55750  69.9999  91.2806 0003495 277.2154  82.8607 14.98335276153750
STARLINK-5577           
1 55751U 23028L   25351.67998597 -.00000338  00000+0 -20503-4 0  9993
2 55751  70.0002  91.3237 0003192 270.5312  89.5481 14.98331233153757
STARLINK-5613           
1 55752U 23028M   25351.70916290  .00004257  00000+0  36419-3 0  9992
2 55752  70.0003  91.0242 0003326 270.1958  89.8820 14.98349809153762
STARLINK-5617           
1 55753U 23028N   25351.65929321  .00001641  00000+0  14528-3 0  9997
2 55753  69.9999  91.2514 0003371 272.7461  87.3312 14.98329241153751
STARLINK-5612           
1 55754U 23028P   25351.71752290  .00001417  00000+0  12647-3 0  9995
2 55754  70.0000  91.0517 0003168 267.3339  92.7457 14.98338770153765
STARLINK-5619           
1 55755U 23028Q   25352.00002315  .00067108  00000+0  27053-2 0  9990
2 55755  70.0006  89.1483 0002880 279.9108 158.3908 15.24467922  5673
STARLINK-5614           
1 55756U 23028R   25351.70083014 -.00000207  00000+0 -95705-5 0  9993
2 55756  70.0000  90.9934 0003212 271.8668  88.2123 14.98331396153760
STARLINK-5544           
1 55757U 23028S   25351.72169308 -.00000043  00000+0  42012-5 0  9997
2 55757  70.0005  91.0672 0003006 268.9081  91.1734 14.98333749153769
STARLINK-5072           
1 55758U 23028T   25351.71336001  .00005700  00000+0  48515-3 0  9999
2 55758  70.0000  91.0372 0003584 260.5540  99.5214 14.98323338153769
STARLINK-5532           
1 55760U 23028V   25351.69666922 -.00000106  00000+0 -11031-5 0  9999
2 55760  69.9998  90.9797 0003505 271.5256  88.5502 14.98317172153760
STARLINK-5611           
1 55761U 23028W   25351.60899415  .00001831  00000+0  16127-3 0  9999
2 55761  70.0003  71.5997 0003426 267.6079  92.4688 14.98322435154239
STARLINK-5603           
1 55762U 23028X   25351.66305158  .00002656  00000+0  23016-3 0  9993
2 55762  70.0001  71.3838 0003265 275.8077  84.2710 14.98358352154243
STARLINK-5593           
1 55763U 23028Y   25351.70500433 -.00000246  00000+0 -12838-4 0  9998
2 55763  69.9998  91.0089 0003197 271.5104  88.5689 14.98332420153767
STARLINK-5499           
1 55764U 23028Z   25351.66724022 -.00000186  00000+0 -77743-5 0  9996
2 55764  70.0006  71.3994 0003149 272.1685  87.9114 14.98330224154245
STARLINK-5595           
1 55765U 23028AA  25351.60465348 -.00000510  00000+0 -34986-4 0  9996
2 55765  70.0009  71.5836 0003357 270.3377  89.7397 14.98331708154235
STARLINK-5599           
1 55766U 23028AB  25351.64636982 -.00000459  00000+0 -30697-4 0  9992
2 55766  70.0002  71.3239 0003217 270.0839  89.9952 14.98330554154247
STARLINK-5606           
1 55767U 23028AC  25351.60883707  .00001380  00000+0  12346-3 0  9990
2 55767  70.0013  71.5979 0002558 268.5457  91.5409 14.98327870154218
STARLINK-5584           
1 55769U 23028AE  25351.65471763 -.00000267  00000+0 -14552-4 0  9999
2 55769  70.0003  71.3539 0002921 267.7608  92.3217 14.98337936154245
STARLINK-5557           
1 55770U 23028AF  25351.65055301  .00003757  00000+0  32255-3 0  9991
2 55770  70.0000  71.3398 0003706 275.0877  84.9859 14.98324369154244
STARLINK-5591           
1 55771U 23028AG  25351.64219427  .00001643  00000+0  14545-3 0  9996
2 55771  70.0001  71.3111 0003176 269.4202  90.6593 14.98336978154247
STARLINK-5835           
1 55772U 23028AH  25351.62566392 -.00000778  00000+0 -57408-4 0  9997
2 55772  70.0004  71.2531 0003481 268.8255  91.2505 14.98331433154247
STARLINK-5833           
1 55773U 23028AJ  25351.65888804  .00000413  00000+0  42401-4 0  9997
2 55773  70.0003  71.3664 0003210 269.8234  90.2558 14.98336211154249
STARLINK-5812           
1 55774U 23028AK  25351.63803169  .00002172  00000+0  18977-3 0  9991
2 55774  70.0002  71.2950 0004426 266.4927  93.5726 14.98328910154248
STARLINK-5809           
1 55775U 23028AL  25351.63384700 -.00000347  00000+0 -21301-4 0  9997
2 55775  70.0003  71.2796 0003031 270.4039  89.6773 14.98329568154246
STARLINK-5814           
1 55777U 23028AN  25351.62549592 -.00000318  00000+0 -18834-4 0  9995
2 55777  70.0005  71.2517 0003417 268.9609  91.1158 14.98334126154245
STARLINK-5816           
1 55778U 23028AP  25351.62134239 -.00001638  00000+0 -12954-3 0  9996
2 55778  70.0003  71.2371 0003045 262.9491  97.1322 14.98318751154247
STARLINK-5817           
1 55779U 23028AQ  25351.59187992  .00000333  00000+0  35716-4 0  9998
2 55779  70.0005  51.2534 0003244 270.1348  89.9439 14.98335006154736
STARLINK-5819           
1 55780U 23028AR  25351.61715376 -.00001180  00000+0 -91093-4 0  9999
2 55780  70.0004  71.2224 0002932 269.6210  90.4613 14.98328007154249
STARLINK-5820           
1 55781U 23028AS  25351.62967505  .00002496  00000+0  21688-3 0  9995
2 55781  70.0004  71.2999 0003230 272.7263  87.3526 14.98333214154248
STARLINK-5826           
1 55782U 23028AT  25351.58793228 -.00004137  00000+0 -33934-3 0  9993
2 55782  70.0039  51.6479 0002032 276.6033  83.4894 14.98308070154729
STARLINK-5825           
1 55783U 23028AU  25351.58773338  .00000131  00000+0  18771-4 0  9995
2 55783  70.0010  51.6454 0003310 267.6040  92.4740 14.98335026154721
STARLINK-5797           
1 55784U 23028AV  25352.00002315  .00061631  00000+0  51319-2 0  9999
2 55784  70.0020  50.5053 0003265 267.5708 244.9157 14.98297474  5674
STARLINK-5818           
1 55785U 23028AW  25351.58355664 -.00001661  00000+0 -13145-3 0  9995
2 55785  70.0023  51.6305 0003005 271.0639  89.0176 14.98329164154727
STARLINK-5823           
1 55786U 23028AX  25351.63875294 -.00130665  00000+0 -11449-1 0  9998
2 55786  70.0068  51.4313 0002881  71.9374 288.2098 14.97302425154735
STARLINK-5811           
1 55787U 23028AY  25351.57938779 -.00000254  00000+0 -13480-4 0  9990
2 55787  70.0008  51.6162 0003152 270.0329  90.0469 14.98330075154721
STARLINK-5804           
1 55788U 23028AZ  25351.57521232  .00000309  00000+0  33725-4 0  9996
2 55788  70.0005  51.6006 0002940 270.0589  90.0234 14.98334599154723
STARLINK-5815           
1 55789U 23028BA  25351.88396927 -.00002158  00000+0 -17308-3 0  9996
2 55789  70.0002  50.6707 0003316 272.6232  87.4548 14.98333137154779
STARLINK-5813           
1 55790U 23028BB  25351.88830532 -.00000562  00000+0 -39270-4 0  9993
2 55790  70.0005  50.6879 0003210 269.3665  90.7126 14.98330915154770
STARLINK-5807           
1 55791U 23028BC  25351.56686184  .00001084  00000+0  98586-4 0  9994
2 55791  70.0006  51.5718 0003245 271.4366  88.6421 14.98337288154723
ONEWEB-0530             
1 55796U 23029A   25351.88020199 -.00000054  00000+0 -16522-3 0  9990
2 55796  87.9204 310.6423 0001866  97.2850 262.8496 13.20770317137217
ONEWEB-0534             
1 55797U 23029B   25351.41303972 -.00000036  00000+0 -11977-3 0  9992
2 55797  87.9197 310.7358 0001975  80.6374 279.4983 13.20769831137152
ONEWEB-0556             
1 55798U 23029C   25351.87389937 -.00000024  00000+0 -90175-4 0  9993
2 55798  87.9202 310.6443 0002800  88.6739 271.4715 13.20772759137210
ONEWEB-0562             
1 55799U 23029D   25351.86128295  .00000013  00000+0  45641-6 0  9997
2 55799  87.9199 310.6287 0002300 103.6305 256.5085 13.20771432137215
ONEWEB-0563             
1 55800U 23029E   25351.62768684  .00000037  00000+0  59413-4 0  9992
2 55800  87.9205 310.7028 0002098  78.2483 281.8885 13.20769576137178
ONEWEB-0564             
1 55801U 23029F   25351.39410722  .00001159  00000+0  28192-2 0  9998
2 55801  87.9195 310.7253 0002044  92.5440 267.5927 13.20764966137154
ONEWEB-0638             
1 55802U 23029G   25351.62380042  .00000197  00000+0  49718-3 0  9995
2 55802  87.8985 325.9410 0002220  92.0790 268.0595 13.14504208135545
ONEWEB-0639             
1 55803U 23029H   25351.90560201  .00000038  00000+0  63337-4 0  9992
2 55803  87.9192 341.0508 0002347  59.8818 300.2547 13.19724769134991
ONEWEB-0640             
1 55804U 23029J   25351.63330786  .00000138  00000+0  33683-3 0  9997
2 55804  87.8993 325.9269 0002592  83.8919 276.2506 13.14504004135560
ONEWEB-0641             
1 55805U 23029K   25351.90085899  .00000001  00000+0 -29876-4 0  9990
2 55805  87.9201 341.0333 0001832  81.1828 278.9512 13.19725492135007
ONEWEB-0642             
1 55806U 23029L   25351.89612320 -.00000042  00000+0 -13720-3 0  9990
2 55806  87.9191 341.0569 0001976  59.9181 300.2147 13.19724940134998
ONEWEB-0643             
1 55807U 23029M   25351.90764304  .00000103  00000+0  24254-3 0  9993
2 55807  87.8997 325.8585 0001670  60.7138 299.4159 13.14504687135579
ONEWEB-0644             
1 55808U 23029N   25351.73974672  .00000028  00000+0  37331-4 0  9993
2 55808  87.9191 341.0973 0001792  74.2388 285.8943 13.19727394134970
ONEWEB-0645             
1 55809U 23029P   25351.91349783  .00000086  00000+0  18172-3 0  9998
2 55809  87.9188 341.0565 0002263  76.1392 283.9992 13.19724330134996
ONEWEB-0646             
1 55810U 23029Q   25351.70342271  .00000123  00000+0  27528-3 0  9999
2 55810  87.9201 341.0896 0001809  77.2553 282.8782 13.19724625134955
